[{"OBJECT_NAME":"STARLINK-1954","OBJECT_ID":"2021-009H","EPOCH":"2026-03-09T23:20:25.352160","MEAN_MOTION":15.30849174,"ECCENTRICITY":0.00046184,"INCLINATION":53.0574,"RA_OF_ASC_NODE":8.8654,"ARG_OF_PERICENTER":103.3293,"MEAN_ANOMALY":256.8222,"EPHEMERIS_TYPE":0,"CLASSIFICATION_TYPE":"U","NORAD_CAT_ID":47555,"ELEMENT_SET_NO":999,"REV_AT_EPOCH":28100,"BSTAR":0.0022371791,"MEAN_MOTION_DOT":0.00067883,"MEAN_MOTION_DDOT":0},{"OBJECT_NAME":"STARLINK-35472","OBJECT_ID":"2025-225D","EPOCH":"2026-03-09T17:39:31.610592","MEAN_MOTION":15.30201345,"ECCENTRICITY":0.00013438,"INCLINATION":53.1582,"RA_OF_ASC_NODE":165.5738,"ARG_OF_PERICENTER":93.6495,"MEAN_ANOMALY":266.4659,"EPHEMERIS_TYPE":0,"CLASSIFICATION_TYPE":"U","NORAD_CAT_ID":65913,"ELEMENT_SET_NO":999,"REV_AT_EPOCH":2441,"BSTAR":0.0015029167,"MEAN_MOTION_DOT":0.00044421,"MEAN_MOTION_DDOT":0}]
